NORAD_CAT_ID,OBJECT_NAME,OBJECT_TYPE,EPOCH,MEAN_MOTION,ECCENTRICITY,INCLINATION,RA_OF_ASC_NODE,ARG_OF_PERICENTER,MEAN_ANOMALY,BSTAR,MEAN_MOTION_DOT,MEAN_MOTION_DDOT,TLE_LINE0,TLE_LINE1,TLE_LINE2,SEMIMAJOR_AXIS,PERIOD,APOGEE,PERIGEE,DECAYED
53007.0,STARLINK-4215,PAYLOAD,2023-06-10 15:29:24,15.0884556,9.06e-05,53.2168,276.9603,77.7917,282.3177,8.0239e-05,9.9e-06,0.0,0 STARLINK-4215,1 53007U 22076X   23161.64542139  .00000990  00000-0  80239-4 0  9993,2 53007  53.2168 276.9603 0000906  77.7917 282.3177 15.08845560 51422,6917.863,95.437,540.355,539.102,0.0
53007.0,STARLINK-4215,PAYLOAD,2023-06-11 07:23:16,15.088375,0.0001469,53.2175,273.9854,60.1477,299.9661,0.00011108,1.48e-05,0.0,0 STARLINK-4215,1 53007U 22076X   23162.30782771  .00001480  00000-0  11108-3 0  9998,2 53007  53.2175 273.9854 0001469  60.1477 299.9661 15.08837500 51996,6917.888,95.438,540.769,538.737,0.0
53007.0,STARLINK-4215,PAYLOAD,2023-06-11 13:44:48,15.08845031,0.0001037,53.217,272.7968,88.8745,271.2366,7.0249e-05,8.31e-06,0.0,0 STARLINK-4215,1 53007U 22076X   23162.57278244  .00000831  00000-0  70249-4 0  9993,2 53007  53.2170 272.7968 0001037  88.8745 271.2366 15.08845031 51566,6917.865,95.437,540.447,539.013,0.0
53007.0,STARLINK-4215,PAYLOAD,2023-06-12 00:52:30,15.0884603,0.0001095,53.217,270.7152,84.9458,275.1659,0.00011186,1.493e-05,0.0,0 STARLINK-4215,1 53007U 22076X   23163.03646001  .00001493  00000-0  11186-3 0  9994,2 53007  53.2170 270.7152 0001095  84.9458 275.1659 15.08846030 52100,6917.862,95.437,540.484,538.969,0.0
53007.0,STARLINK-4215,PAYLOAD,2023-06-12 13:35:35,15.0884408,9.76e-05,53.2169,268.3359,86.4457,273.6647,0.00014307,1.99e-05,0.0,0 STARLINK-4215,1 53007U 22076X   23163.56637908  .00001990  00000-0  14307-3 0  9998,2 53007  53.2169 268.3359 0000976  86.4457 273.6647 15.08844080 51712,6917.868,95.437,540.408,539.058,0.0
53007.0,STARLINK-4215,PAYLOAD,2023-06-13 11:50:59,15.08836842,0.0001216,53.2173,264.1705,95.1642,264.9489,-1.6104e-05,-5.44e-06,0.0,0 STARLINK-4215,1 53007U 22076X   23164.49374673 -.00000544  00000-0 -16104-4 0  9992,2 53007  53.2173 264.1705 0001216  95.1642 264.9489 15.08836842 52329,6917.89,95.438,540.596,538.914,0.0
53007.0,STARLINK-4215,PAYLOAD,2023-06-14 10:06:23,15.08839136,0.0001171,53.2171,260.0076,92.969,267.1436,4.3709e-06,-2.18e-06,0.0,0 STARLINK-4215,1 53007U 22076X   23165.42110495 -.00000218  00000-0  43709-5 0  9995,2 53007  53.2171 260.0076 0001171  92.9690 267.1436 15.08839136 51999,6917.883,95.438,540.558,538.938,0.0
53007.0,STARLINK-4215,PAYLOAD,2023-06-14 22:49:28,15.08845648,0.0001096,53.2164,257.6308,76.7013,283.4101,4.4045e-06,-2.18e-06,0.0,0 STARLINK-4215,1 53007U 22076X   23165.95102067 -.00000218  00000-0  44045-5 0  9993,2 53007  53.2164 257.6308 0001096  76.7013 283.4101 15.08845648 52543,6917.863,95.437,540.486,538.97,0.0
53007.0,STARLINK-4215,PAYLOAD,2023-06-15 09:57:11,15.08830096,0.0001027,53.2157,255.5525,94.4796,265.6313,1.861e-05,8e-08,0.0,0 STARLINK-4215,1 53007U 22076X   23166.41471192  .00000008  00000-0  18610-4 0  9997,2 53007  53.2157 255.5525 0001027  94.4796 265.6313 15.08830096 52618,6917.911,95.438,540.486,539.065,0.0
53007.0,STARLINK-4215,PAYLOAD,2023-06-15 11:32:34,15.0883136,0.0001036,53.2157,255.2549,97.7084,262.4026,2.9157e-05,1.76e-06,0.0,0 STARLINK-4215,1 53007U 22076X   23166.48095112  .00000176  00000-0  29157-4 0  9992,2 53007  53.2157 255.2549 0001036  97.7084 262.4026 15.08831360 52157,6917.907,95.438,540.488,539.055,0.0
53007.0,STARLINK-4215,PAYLOAD,2023-06-15 22:40:15,15.08838498,9.62e-05,53.2152,253.1721,94.1474,265.9628,4.8328e-05,4.81e-06,0.0,0 STARLINK-4215,1 53007U 22076X   23166.94462711  .00000481  00000-0  48328-4 0  9996,2 53007  53.2152 253.1721 0000962  94.1474 265.9628 15.08838498 52696,6917.885,95.438,540.415,539.084,0.0
53007.0,STARLINK-4215,PAYLOAD,2023-06-16 09:47:57,15.08851132,7.77e-05,53.2157,251.09,98.1462,261.9618,3.3305e-05,2.43e-06,0.0,0 STARLINK-4215,1 53007U 22076X   23167.40829969  .00000243  00000-0  33305-4 0  9995,2 53007  53.2157 251.0900 0000777  98.1462 261.9618 15.08851132 52765,6917.846,95.437,540.249,539.174,0.0
53007.0,STARLINK-4215,PAYLOAD,2023-06-16 11:23:20,15.08855283,7.48e-05,53.2154,250.793,101.2583,258.8493,2.6766e-05,1.39e-06,0.0,0 STARLINK-4215,1 53007U 22076X   23167.47453706  .00000139  00000-0  26766-4 0  9991,2 53007  53.2154 250.7930 0000748 101.2583 258.8493 15.08855283 52306,6917.834,95.437,540.216,539.181,0.0
53007.0,STARLINK-4215,PAYLOAD,2023-06-16 14:34:05,15.08855483,0.0001045,53.2157,250.1974,91.3257,268.7854,0.00017748,2.539e-05,0.0,0 STARLINK-4215,1 53007U 22076X   23167.60701341  .00002539  00000-0  17748-3 0  9992,2 53007  53.2157 250.1974 0001045  91.3257 268.7854 15.08855483 52324,6917.833,95.437,540.421,538.975,0.0
53007.0,STARLINK-4215,PAYLOAD,2023-06-16 22:31:02,15.08840278,0.0001304,53.2158,248.7107,78.1343,281.9796,0.00015088,2.114e-05,0.0,0 STARLINK-4215,1 53007U 22076X   23167.93822339  .00002114  00000-0  15088-3 0  9993,2 53007  53.2158 248.7107 0001304  78.1343 281.9796 15.08840278 52848,6917.88,95.438,540.647,538.842,0.0
53007.0,STARLINK-4215,PAYLOAD,2023-06-17 08:03:22,15.08824097,0.0001113,53.2155,246.9258,76.614,283.4976,-0.00010944,-2.028e-05,0.0,0 STARLINK-4215,1 53007U 22076X   23168.33567390 -.00002028  00000-0 -10944-3 0  9993,2 53007  53.2155 246.9258 0001113  76.6140 283.4976 15.08824097 52903,6917.929,95.439,540.564,539.024,0.0
53007.0,STARLINK-4215,PAYLOAD,2023-06-17 12:49:31,15.08830767,0.0001095,53.2154,246.0334,74.4127,285.6986,-7.9311e-05,-1.549e-05,0.0,0 STARLINK-4215,1 53007U 22076X   23168.53439055 -.00001549  00000-0 -79311-4 0  9992,2 53007  53.2154 246.0334 0001095  74.4127 285.6986 15.08830767 52937,6917.909,95.438,540.531,539.016,0.0
53007.0,STARLINK-4215,PAYLOAD,2023-06-18 11:04:55,15.0884429,0.0001121,53.2149,241.8705,68.0785,292.0326,0.00066888,0.00010375,0.0,0 STARLINK-4215,1 53007U 22076X   23169.46175252  .00010375  00000-0  66888-3 0  9990,2 53007  53.2149 241.8705 0001121  68.0785 292.0326 15.08844290 52605,6917.867,95.437,540.508,538.957,0.0
53007.0,STARLINK-4215,PAYLOAD,2023-06-18 14:15:41,15.08848292,0.0001112,53.2147,241.2759,66.0356,294.0752,0.00081757,0.00012751,0.0,0 STARLINK-4215,1 53007U 22076X   23169.59423245  .00012751  00000-0  81757-3 0  9994,2 53007  53.2147 241.2759 0001112  66.0356 294.0752 15.08848292 53093,6917.855,95.437,540.489,538.951,0.0
53007.0,STARLINK-4215,PAYLOAD,2023-06-18 22:12:37,15.08847247,0.0001107,53.2143,239.7893,64.6491,295.4616,0.000537,8.27e-05,0.0,0 STARLINK-4215,1 53007U 22076X   23169.92543234  .00008270  00000-0  53700-3 0  9990,2 53007  53.2143 239.7893 0001107  64.6491 295.4616 15.08847247 53147,6917.858,95.437,540.489,538.957,0.0
53007.0,STARLINK-4215,PAYLOAD,2023-06-19 10:55:42,15.08850985,0.0001186,53.2144,237.4102,65.5972,294.5144,0.00044808,6.853e-05,0.0,0 STARLINK-4215,1 53007U 22076X   23170.45535065  .00006853  00000-0  44808-3 0  9997,2 53007  53.2144 237.4102 0001186  65.5972 294.5144 15.08850985 52752,6917.847,95.437,540.532,538.891,0.0
53007.0,STARLINK-4215,PAYLOAD,2023-06-20 04:24:56,15.08839101,0.000118,53.2142,234.1393,71.4025,288.7095,3.1437e-05,2.13e-06,0.0,0 STARLINK-4215,1 53007U 22076X   23171.18399248  .00000213  00000-0  31437-4 0  9998,2 53007  53.2142 234.1393 0001180  71.4025 288.7095 15.08839101 53337,6917.883,95.438,540.564,538.932,0.0
53007.0,STARLINK-4215,PAYLOAD,2023-06-20 10:46:29,15.08841859,0.0001156,53.2144,232.9493,73.579,286.5329,9.731e-05,1.261e-05,0.0,0 STARLINK-4215,1 53007U 22076X   23171.44895232  .00001261  00000-0  97310-4 0  9997,2 53007  53.2144 232.9493 0001156  73.5790 286.5329 15.08841859 52902,6917.875,95.437,540.539,538.94,0.0
53007.0,STARLINK-4215,PAYLOAD,2023-06-21 10:37:16,15.08848082,0.0001075,53.215,228.4892,74.003,286.1081,0.00017934,2.568e-05,0.0,0 STARLINK-4215,1 53007U 22076X   23172.44254860  .00002568  00000-0  17934-3 0  9998,2 53007  53.2150 228.4892 0001075  74.0030 286.1081 15.08848082 53520,6917.856,95.437,540.464,538.977,0.0
53007.0,STARLINK-4215,PAYLOAD,2023-06-21 20:09:35,15.08841938,9.49e-05,53.2131,226.7041,63.3512,296.7577,8.36e-05,1.043e-05,0.0,0 STARLINK-4215,1 53007U 22076X   23172.83999073  .00001043  00000-0  83600-4 0  9994,2 53007  53.2131 226.7041 0000949  63.3512 296.7577 15.08841938 53116,6917.874,95.437,540.396,539.083,0.0
53007.0,STARLINK-4215,PAYLOAD,2023-06-22 02:31:08,15.08838055,0.0001052,53.2151,225.518,74.056,286.0548,8.515e-05,1.068e-05,0.0,0 STARLINK-4215,1 53007U 22076X   23173.10495397  .00001068  00000-0  85150-4 0  9994,2 53007  53.2151 225.5180 0001052  74.0560 286.0548 15.08838055 53629,6917.886,95.438,540.479,539.024,0.0
53007.0,STARLINK-4215,PAYLOAD,2023-06-23 10:18:50,15.08841538,0.0001027,53.216,219.5686,94.0245,266.0864,0.0001639,2.322e-05,0.0,0 STARLINK-4215,1 53007U 22076X   23174.42975253  .00002322  00000-0  16390-3 0  9997,2 53007  53.2160 219.5686 0001027  94.0245 266.0864 15.08841538 53828,6917.876,95.437,540.451,539.03,0.0
53007.0,STARLINK-4215,PAYLOAD,2023-06-24 08:34:15,15.08833829,0.0001004,53.215,215.4053,81.2234,278.8872,3.1883e-05,2.2e-06,0.0,0 STARLINK-4215,1 53007U 22076X   23175.35711930  .00000220  00000-0  31883-4 0  9990,2 53007  53.2150 215.4053 0001004  81.2234 278.8872 15.08833829 53960,6917.899,95.438,540.459,539.07,0.0
53007.0,STARLINK-4215,PAYLOAD,2023-06-25 08:25:01,15.08846965,0.0001121,53.216,210.9439,79.5348,280.577,7.5252e-05,9.1e-06,0.0,0 STARLINK-4215,1 53007U 22076X   23176.35071519  .00000910  00000-0  75252-4 0  9997,2 53007  53.2160 210.9439 0001121  79.5348 280.5770 15.08846965 54115,6917.859,95.437,540.5,538.949,0.0
53007.0,STARLINK-4215,PAYLOAD,2023-06-26 01:54:16,15.08837576,0.0001166,53.2154,207.6727,80.406,279.7064,0.00011565,1.553e-05,0.0,0 STARLINK-4215,1 53007U 22076X   23177.07936016  .00001553  00000-0  11565-3 0  9999,2 53007  53.2154 207.6727 0001166  80.4060 279.7064 15.08837576 54228,6917.888,95.438,540.559,538.946,0.0
